CCSDS_OMM_VERS = 2.0
CREATION_DATE  = 
ORIGINATOR     = 

OBJECT_NAME    = KUIPER-00117
OBJECT_ID      = 2025-228C
CENTER_NAME    = EARTH
REF_FRAME      = TEME
TIME_SYSTEM    = UTC
MEAN_ELEMENT_THEORY = SGP/SGP4

EPOCH          = 2025-10-26T17:04:16.447008
MEAN_MOTION    = 15.34789635
ECCENTRICITY   = .0006044
INCLINATION    = 51.8807
RA_OF_ASC_NODE = 247.1008
ARG_OF_PERICENTER = 176.4033
MEAN_ANOMALY   = 183.6997

EPHEMERIS_TYPE = 0
CLASSIFICATION_TYPE = U
NORAD_CAT_ID   = 65949
ELEMENT_SET_NO = 999
REV_AT_EPOCH   = 319
BSTAR          = .92293E-3
MEAN_MOTION_DOT = .31368E-3
MEAN_MOTION_DDOT = 0

CCSDS_OMM_VERS = 2.0
CREATION_DATE  = 
ORIGINATOR     = 

OBJECT_NAME    = KUIPER-00121
OBJECT_ID      = 2025-228D
CENTER_NAME    = EARTH
REF_FRAME      = TEME
TIME_SYSTEM    = UTC
MEAN_ELEMENT_THEORY = SGP/SGP4

EPOCH          = 2025-10-26T17:11:31.801056
MEAN_MOTION    = 15.34206823
ECCENTRICITY   = .0005577
INCLINATION    = 51.8815
RA_OF_ASC_NODE = 247.1370
ARG_OF_PERICENTER = 196.2013
MEAN_ANOMALY   = 163.8795

EPHEMERIS_TYPE = 0
CLASSIFICATION_TYPE = U
NORAD_CAT_ID   = 65950
ELEMENT_SET_NO = 999
REV_AT_EPOCH   = 319
BSTAR          = .10096E-2
MEAN_MOTION_DOT = .33721E-3
MEAN_MOTION_DDOT = 0

CCSDS_OMM_VERS = 2.0
CREATION_DATE  = 
ORIGINATOR     = 

OBJECT_NAME    = KUIPER-00122
OBJECT_ID      = 2025-228E
CENTER_NAME    = EARTH
REF_FRAME      = TEME
TIME_SYSTEM    = UTC
MEAN_ELEMENT_THEORY = SGP/SGP4

EPOCH          = 2025-10-26T17:12:53.784288
MEAN_MOTION    = 15.34069576
ECCENTRICITY   = .0006366
INCLINATION    = 51.8806
RA_OF_ASC_NODE = 247.1372
ARG_OF_PERICENTER = 200.5493
MEAN_ANOMALY   = 159.5237

EPHEMERIS_TYPE = 0
CLASSIFICATION_TYPE = U
NORAD_CAT_ID   = 65951
ELEMENT_SET_NO = 999
REV_AT_EPOCH   = 319
BSTAR          = .12222E-2
MEAN_MOTION_DOT = .40768E-3
MEAN_MOTION_DDOT = 0

CCSDS_OMM_VERS = 2.0
CREATION_DATE  = 
ORIGINATOR     = 

OBJECT_NAME    = KUIPER-00123
OBJECT_ID      = 2025-228F
CENTER_NAME    = EARTH
REF_FRAME      = TEME
TIME_SYSTEM    = UTC
MEAN_ELEMENT_THEORY = SGP/SGP4

EPOCH          = 2025-10-26T17:11:39.042240
MEAN_MOTION    = 15.34134900
ECCENTRICITY   = .000542
INCLINATION    = 51.8800
RA_OF_ASC_NODE = 247.1304
ARG_OF_PERICENTER = 190.8942
MEAN_ANOMALY   = 169.1927

EPHEMERIS_TYPE = 0
CLASSIFICATION_TYPE = U
NORAD_CAT_ID   = 65952
ELEMENT_SET_NO = 999
REV_AT_EPOCH   = 319
BSTAR          = .99792E-3
MEAN_MOTION_DOT = .33248E-3
MEAN_MOTION_DDOT = 0

CCSDS_OMM_VERS = 2.0
CREATION_DATE  = 
ORIGINATOR     = 

OBJECT_NAME    = KUIPER-00124
OBJECT_ID      = 2025-228G
CENTER_NAME    = EARTH
REF_FRAME      = TEME
TIME_SYSTEM    = UTC
MEAN_ELEMENT_THEORY = SGP/SGP4

EPOCH          = 2025-10-26T17:13:28.911936
MEAN_MOTION    = 15.34023810
ECCENTRICITY   = .000559
INCLINATION    = 51.8811
RA_OF_ASC_NODE = 247.1434
ARG_OF_PERICENTER = 205.6256
MEAN_ANOMALY   = 154.4453

EPHEMERIS_TYPE = 0
CLASSIFICATION_TYPE = U
NORAD_CAT_ID   = 65953
ELEMENT_SET_NO = 999
REV_AT_EPOCH   = 319
BSTAR          = .98025E-3
MEAN_MOTION_DOT = .32535E-3
MEAN_MOTION_DDOT = 0

CCSDS_OMM_VERS = 2.0
CREATION_DATE  = 
ORIGINATOR     = 

OBJECT_NAME    = KUIPER-00125
OBJECT_ID      = 2025-228H
CENTER_NAME    = EARTH
REF_FRAME      = TEME
TIME_SYSTEM    = UTC
MEAN_ELEMENT_THEORY = SGP/SGP4

EPOCH          = 2025-10-26T17:08:31.576704
MEAN_MOTION    = 15.34435093
ECCENTRICITY   = .0005675
INCLINATION    = 51.8801
RA_OF_ASC_NODE = 247.1159
ARG_OF_PERICENTER = 185.4142
MEAN_ANOMALY   = 174.6783

EPHEMERIS_TYPE = 0
CLASSIFICATION_TYPE = U
NORAD_CAT_ID   = 65954
ELEMENT_SET_NO = 999
REV_AT_EPOCH   = 319
BSTAR          = .9483E-3
MEAN_MOTION_DOT = .31876E-3
MEAN_MOTION_DDOT = 0

CCSDS_OMM_VERS = 2.0
CREATION_DATE  = 
ORIGINATOR     = 

OBJECT_NAME    = KUIPER-00126
OBJECT_ID      = 2025-228J
CENTER_NAME    = EARTH
REF_FRAME      = TEME
TIME_SYSTEM    = UTC
MEAN_ELEMENT_THEORY = SGP/SGP4

EPOCH          = 2025-10-26T17:12:16.456896
MEAN_MOTION    = 15.34172633
ECCENTRICITY   = .0006114
INCLINATION    = 51.8808
RA_OF_ASC_NODE = 247.1366
ARG_OF_PERICENTER = 200.8913
MEAN_ANOMALY   = 159.1823

EPHEMERIS_TYPE = 0
CLASSIFICATION_TYPE = U
NORAD_CAT_ID   = 65955
ELEMENT_SET_NO = 999
REV_AT_EPOCH   = 319
BSTAR          = .12768E-2
MEAN_MOTION_DOT = .42755E-3
MEAN_MOTION_DDOT = 0

CCSDS_OMM_VERS = 2.0
CREATION_DATE  = 
ORIGINATOR     = 

OBJECT_NAME    = KUIPER-00127
OBJECT_ID      = 2025-228K
CENTER_NAME    = EARTH
REF_FRAME      = TEME
TIME_SYSTEM    = UTC
MEAN_ELEMENT_THEORY = SGP/SGP4

EPOCH          = 2025-10-26T17:04:40.434240
MEAN_MOTION    = 15.34750026
ECCENTRICITY   = .0006001
INCLINATION    = 51.8808
RA_OF_ASC_NODE = 247.1029
ARG_OF_PERICENTER = 178.6578
MEAN_ANOMALY   = 181.4425

EPHEMERIS_TYPE = 0
CLASSIFICATION_TYPE = U
NORAD_CAT_ID   = 65956
ELEMENT_SET_NO = 999
REV_AT_EPOCH   = 319
BSTAR          = .99013E-3
MEAN_MOTION_DOT = .33647E-3
MEAN_MOTION_DDOT = 0

CCSDS_OMM_VERS = 2.0
CREATION_DATE  = 
ORIGINATOR     = 

OBJECT_NAME    = KUIPER-00128
OBJECT_ID      = 2025-228L
CENTER_NAME    = EARTH
REF_FRAME      = TEME
TIME_SYSTEM    = UTC
MEAN_ELEMENT_THEORY = SGP/SGP4

EPOCH          = 2025-10-26T17:07:19.253856
MEAN_MOTION    = 15.34536806
ECCENTRICITY   = .0005902
INCLINATION    = 51.8810
RA_OF_ASC_NODE = 247.1164
ARG_OF_PERICENTER = 181.2116
MEAN_ANOMALY   = 178.8856

EPHEMERIS_TYPE = 0
CLASSIFICATION_TYPE = U
NORAD_CAT_ID   = 65957
ELEMENT_SET_NO = 999
REV_AT_EPOCH   = 319
BSTAR          = .97122E-3
MEAN_MOTION_DOT = .32768E-3
MEAN_MOTION_DDOT = 0

CCSDS_OMM_VERS = 2.0
CREATION_DATE  = 
ORIGINATOR     = 

OBJECT_NAME    = KUIPER-00129
OBJECT_ID      = 2025-228M
CENTER_NAME    = EARTH
REF_FRAME      = TEME
TIME_SYSTEM    = UTC
MEAN_ELEMENT_THEORY = SGP/SGP4

EPOCH          = 2025-10-26T17:06:46.459008
MEAN_MOTION    = 15.34548565
ECCENTRICITY   = .0006151
INCLINATION    = 51.8807
RA_OF_ASC_NODE = 247.1138
ARG_OF_PERICENTER = 176.8740
MEAN_ANOMALY   = 183.2285

EPHEMERIS_TYPE = 0
CLASSIFICATION_TYPE = U
NORAD_CAT_ID   = 65958
ELEMENT_SET_NO = 999
REV_AT_EPOCH   = 319
BSTAR          = .10498E-2
MEAN_MOTION_DOT = .35477E-3
MEAN_MOTION_DDOT = 0

CCSDS_OMM_VERS = 2.0
CREATION_DATE  = 
ORIGINATOR     = 

OBJECT_NAME    = KUIPER-00130
OBJECT_ID      = 2025-228N
CENTER_NAME    = EARTH
REF_FRAME      = TEME
TIME_SYSTEM    = UTC
MEAN_ELEMENT_THEORY = SGP/SGP4

EPOCH          = 2025-10-26T17:09:48.375072
MEAN_MOTION    = 15.34361076
ECCENTRICITY   = .0005299
INCLINATION    = 51.8800
RA_OF_ASC_NODE = 247.1225
ARG_OF_PERICENTER = 192.0495
MEAN_ANOMALY   = 168.0365

EPHEMERIS_TYPE = 0
CLASSIFICATION_TYPE = U
NORAD_CAT_ID   = 65959
ELEMENT_SET_NO = 999
REV_AT_EPOCH   = 319
BSTAR          = .96835E-3
MEAN_MOTION_DOT = .32482E-3
MEAN_MOTION_DDOT = 0

CCSDS_OMM_VERS = 2.0
CREATION_DATE  = 
ORIGINATOR     = 

OBJECT_NAME    = KUIPER-00134
OBJECT_ID      = 2025-228P
CENTER_NAME    = EARTH
REF_FRAME      = TEME
TIME_SYSTEM    = UTC
MEAN_ELEMENT_THEORY = SGP/SGP4

EPOCH          = 2025-10-26T17:10:59.509920
MEAN_MOTION    = 15.34252217
ECCENTRICITY   = .000515
INCLINATION    = 51.8801
RA_OF_ASC_NODE = 247.1274
ARG_OF_PERICENTER = 197.8743
MEAN_ANOMALY   = 162.2062

EPHEMERIS_TYPE = 0
CLASSIFICATION_TYPE = U
NORAD_CAT_ID   = 65960
ELEMENT_SET_NO = 999
REV_AT_EPOCH   = 319
BSTAR          = .87512E-3
MEAN_MOTION_DOT = .29203E-3
MEAN_MOTION_DDOT = 0

