KUIPER-00117            
1 65949U 25228C   25299.71130147  .00031368  00000+0  92293-3 0  9991
2 65949  51.8807 247.1008 0006044 176.4033 183.6997 15.34789635  3191
KUIPER-00121            
1 65950U 25228D   25299.71634029  .00033721  00000+0  10096-2 0  9996
2 65950  51.8815 247.1370 0005577 196.2013 163.8795 15.34206823  3191
KUIPER-00122            
1 65951U 25228E   25299.71728917  .00040768  00000+0  12222-2 0  9999
2 65951  51.8806 247.1372 0006366 200.5493 159.5237 15.34069576  3197
KUIPER-00123            
1 65952U 25228F   25299.71642410  .00033248  00000+0  99792-3 0  9996
2 65952  51.8800 247.1304 0005420 190.8942 169.1927 15.34134900  3194
KUIPER-00124            
1 65953U 25228G   25299.71769574  .00032535  00000+0  98025-3 0  9994
2 65953  51.8811 247.1434 0005590 205.6256 154.4453 15.34023810  3190
KUIPER-00125            
1 65954U 25228H   25299.71425436  .00031876  00000+0  94830-3 0  9998
2 65954  51.8801 247.1159 0005675 185.4142 174.6783 15.34435093  3197
KUIPER-00126            
1 65955U 25228J   25299.71685714  .00042755  00000+0  12768-2 0  9993
2 65955  51.8808 247.1366 0006114 200.8913 159.1823 15.34172633  3193
KUIPER-00127            
1 65956U 25228K   25299.71157910  .00033647  00000+0  99013-3 0  9995
2 65956  51.8808 247.1029 0006001 178.6578 181.4425 15.34750026  3198
KUIPER-00128            
1 65957U 25228L   25299.71341729  .00032768  00000+0  97122-3 0  9991
2 65957  51.8810 247.1164 0005902 181.2116 178.8856 15.34536806  3195
KUIPER-00129            
1 65958U 25228M   25299.71303772  .00035477  00000+0  10498-2 0  9998
2 65958  51.8807 247.1138 0006151 176.8740 183.2285 15.34548565  3194
KUIPER-00130            
1 65959U 25228N   25299.71514323  .00032482  00000+0  96835-3 0  9998
2 65959  51.8800 247.1225 0005299 192.0495 168.0365 15.34361076  3194
KUIPER-00134            
1 65960U 25228P   25299.71596655  .00029203  00000+0  87512-3 0  9997
2 65960  51.8801 247.1274 0005150 197.8743 162.2062 15.34252217  3192
